[{"OBJECT_NAME":"ONEWEB-0379","OBJECT_ID":"2021-090AC","EPOCH":"2026-01-24T06:01:56.006688","MEAN_MOTION":13.1450539,"ECCENTRICITY":0.00017616,"INCLINATION":87.903,"RA_OF_ASC_NODE":318.3953,"ARG_OF_PERICENTER":74.0644,"MEAN_ANOMALY":286.068,"EPHEMERIS_TYPE":0,"CLASSIFICATION_TYPE":"U","NORAD_CAT_ID":49305,"ELEMENT_SET_NO":999,"REV_AT_EPOCH":20865,"BSTAR":0.00061220794,"MEAN_MOTION_DOT":2.4e-6,"MEAN_MOTION_DDOT":0},{"OBJECT_NAME":"ONEWEB-0380","OBJECT_ID":"2021-090AD","EPOCH":"2026-01-23T19:55:08.052384","MEAN_MOTION":13.19726988,"ECCENTRICITY":0.00019985,"INCLINATION":87.924,"RA_OF_ASC_NODE":333.7035,"ARG_OF_PERICENTER":82.7612,"MEAN_ANOMALY":277.3748,"EPHEMERIS_TYPE":0,"CLASSIFICATION_TYPE":"U","NORAD_CAT_ID":49306,"ELEMENT_SET_NO":999,"REV_AT_EPOCH":20738,"BSTAR":-0.00014558558,"MEAN_MOTION_DOT":-4.5e-7,"MEAN_MOTION_DDOT":0},{"OBJECT_NAME":"ONEWEB-0381","OBJECT_ID":"2021-090AE","EPOCH":"2026-01-24T05:17:23.612352","MEAN_MOTION":13.20774406,"ECCENTRICITY":0.0001933,"INCLINATION":87.9229,"RA_OF_ASC_NODE":303.1637,"ARG_OF_PERICENTER":74.6225,"MEAN_ANOMALY":285.5122,"EPHEMERIS_TYPE":0,"CLASSIFICATION_TYPE":"U","NORAD_CAT_ID":49307,"ELEMENT_SET_NO":999,"REV_AT_EPOCH":21082,"BSTAR":0.00011276864,"MEAN_MOTION_DOT":5.9e-7,"MEAN_MOTION_DDOT":0},{"OBJECT_NAME":"ONEWEB-0382","OBJECT_ID":"2021-090AF","EPOCH":"2026-01-24T04:59:12.472800","MEAN_MOTION":13.20773111,"ECCENTRICITY":0.00019789,"INCLINATION":87.9231,"RA_OF_ASC_NODE":303.1625,"ARG_OF_PERICENTER":70.5847,"MEAN_ANOMALY":289.55,"EPHEMERIS_TYPE":0,"CLASSIFICATION_TYPE":"U","NORAD_CAT_ID":49308,"ELEMENT_SET_NO":999,"REV_AT_EPOCH":21081,"BSTAR":0.00026195879,"MEAN_MOTION_DOT":1.19e-6,"MEAN_MOTION_DDOT":0},{"OBJECT_NAME":"ONEWEB-0383","OBJECT_ID":"2021-090AG","EPOCH":"2026-01-24T05:52:49.588896","MEAN_MOTION":13.145043,"ECCENTRICITY":0.00018193,"INCLINATION":87.9032,"RA_OF_ASC_NODE":318.3819,"ARG_OF_PERICENTER":71.6958,"MEAN_ANOMALY":288.4369,"EPHEMERIS_TYPE":0,"CLASSIFICATION_TYPE":"U","NORAD_CAT_ID":49309,"ELEMENT_SET_NO":999,"REV_AT_EPOCH":20868,"BSTAR":0.00031114236,"MEAN_MOTION_DOT":1.28e-6,"MEAN_MOTION_DDOT":0},{"OBJECT_NAME":"ONEWEB-0384","OBJECT_ID":"2021-090AH","EPOCH":"2026-01-24T04:48:22.321440","MEAN_MOTION":13.20803539,"ECCENTRICITY":0.00021011,"INCLINATION":87.9239,"RA_OF_ASC_NODE":303.2036,"ARG_OF_PERICENTER":64.4411,"MEAN_ANOMALY":295.6939,"EPHEMERIS_TYPE":0,"CLASSIFICATION_TYPE":"U","NORAD_CAT_ID":49310,"ELEMENT_SET_NO":999,"REV_AT_EPOCH":21082,"BSTAR":0.00034177763,"MEAN_MOTION_DOT":1.52e-6,"MEAN_MOTION_DDOT":0},{"OBJECT_NAME":"ONEWEB-0385","OBJECT_ID":"2021-090AJ","EPOCH":"2026-01-24T04:47:51.353952","MEAN_MOTION":13.2077099,"ECCENTRICITY":0.00018116,"INCLINATION":87.9229,"RA_OF_ASC_NODE":303.1681,"ARG_OF_PERICENTER":74.8474,"MEAN_ANOMALY":285.286,"EPHEMERIS_TYPE":0,"CLASSIFICATION_TYPE":"U","NORAD_CAT_ID":49311,"ELEMENT_SET_NO":999,"REV_AT_EPOCH":21079,"BSTAR":0.00034566959,"MEAN_MOTION_DOT":1.54e-6,"MEAN_MOTION_DDOT":0},{"OBJECT_NAME":"ONEWEB-0386","OBJECT_ID":"2021-090AK","EPOCH":"2026-01-24T03:23:44.527776","MEAN_MOTION":13.20774624,"ECCENTRICITY":0.00018792,"INCLINATION":87.9233,"RA_OF_ASC_NODE":303.1645,"ARG_OF_PERICENTER":69.7684,"MEAN_ANOMALY":290.3652,"EPHEMERIS_TYPE":0,"CLASSIFICATION_TYPE":"U","NORAD_CAT_ID":49312,"ELEMENT_SET_NO":999,"REV_AT_EPOCH":21080,"BSTAR":2.1249176e-5,"MEAN_MOTION_DOT":2.2e-7,"MEAN_MOTION_DDOT":0},{"OBJECT_NAME":"ONEWEB-0387","OBJECT_ID":"2021-090AL","EPOCH":"2026-01-24T04:50:07.153152","MEAN_MOTION":13.20774006,"ECCENTRICITY":0.00019901,"INCLINATION":87.9223,"RA_OF_ASC_NODE":303.1944,"ARG_OF_PERICENTER":81.1821,"MEAN_ANOMALY":278.9538,"EPHEMERIS_TYPE":0,"CLASSIFICATION_TYPE":"U","NORAD_CAT_ID":49313,"ELEMENT_SET_NO":999,"REV_AT_EPOCH":21081,"BSTAR":0.00034507168,"MEAN_MOTION_DOT":1.53e-6,"MEAN_MOTION_DDOT":0},{"OBJECT_NAME":"ONEWEB-0388","OBJECT_ID":"2021-090AM","EPOCH":"2026-01-24T03:05:00.769632","MEAN_MOTION":13.19727083,"ECCENTRICITY":0.00019017,"INCLINATION":87.9238,"RA_OF_ASC_NODE":333.6428,"ARG_OF_PERICENTER":76.7184,"MEAN_ANOMALY":283.4161,"EPHEMERIS_TYPE":0,"CLASSIFICATION_TYPE":"U","NORAD_CAT_ID":49314,"ELEMENT_SET_NO":999,"REV_AT_EPOCH":20741,"BSTAR":-4.141523e-6,"MEAN_MOTION_DOT":1.1e-7,"MEAN_MOTION_DDOT":0},{"OBJECT_NAME":"ONEWEB-0389","OBJECT_ID":"2021-132A","EPOCH":"2026-01-24T07:11:32.536032","MEAN_MOTION":13.176493,"ECCENTRICITY":0.00022035,"INCLINATION":87.9083,"RA_OF_ASC_NODE":34.4638,"ARG_OF_PERICENTER":88.5756,"MEAN_ANOMALY":271.5628,"EPHEMERIS_TYPE":0,"CLASSIFICATION_TYPE":"U","NORAD_CAT_ID":50469,"ELEMENT_SET_NO":999,"REV_AT_EPOCH":19913,"BSTAR":-0.00010240901,"MEAN_MOTION_DOT":-2.7e-7,"MEAN_MOTION_DDOT":0},{"OBJECT_NAME":"ONEWEB-0390","OBJECT_ID":"2021-132B","EPOCH":"2026-01-23T18:28:32.165472","MEAN_MOTION":13.1764902,"ECCENTRICITY":0.0001852,"INCLINATION":87.9084,"RA_OF_ASC_NODE":34.5701,"ARG_OF_PERICENTER":99.2745,"MEAN_ANOMALY":260.8596,"EPHEMERIS_TYPE":0,"CLASSIFICATION_TYPE":"U","NORAD_CAT_ID":50470,"ELEMENT_SET_NO":999,"REV_AT_EPOCH":19906,"BSTAR":0.00012432026,"MEAN_MOTION_DOT":6.1e-7,"MEAN_MOTION_DDOT":0},{"OBJECT_NAME":"ONEWEB-0391","OBJECT_ID":"2021-132C","EPOCH":"2026-01-24T07:16:23.034432","MEAN_MOTION":13.17651437,"ECCENTRICITY":0.00026763,"INCLINATION":87.9079,"RA_OF_ASC_NODE":34.4731,"ARG_OF_PERICENTER":96.1856,"MEAN_ANOMALY":263.958,"EPHEMERIS_TYPE":0,"CLASSIFICATION_TYPE":"U","NORAD_CAT_ID":50471,"ELEMENT_SET_NO":999,"REV_AT_EPOCH":19913,"BSTAR":0.00022255879,"MEAN_MOTION_DOT":9.9e-7,"MEAN_MOTION_DDOT":0},{"OBJECT_NAME":"ONEWEB-0392","OBJECT_ID":"2021-132D","EPOCH":"2026-01-24T06:10:47.929152","MEAN_MOTION":13.17649931,"ECCENTRICITY":0.00021933,"INCLINATION":87.9093,"RA_OF_ASC_NODE":34.4382,"ARG_OF_PERICENTER":90.0302,"MEAN_ANOMALY":270.1081,"EPHEMERIS_TYPE":0,"CLASSIFICATION_TYPE":"U","NORAD_CAT_ID":50472,"ELEMENT_SET_NO":999,"REV_AT_EPOCH":19916,"BSTAR":-0.00011855909,"MEAN_MOTION_DOT":-3.3e-7,"MEAN_MOTION_DDOT":0},{"OBJECT_NAME":"ONEWEB-0393","OBJECT_ID":"2021-132E","EPOCH":"2026-01-24T07:21:27.733536","MEAN_MOTION":13.17648468,"ECCENTRICITY":0.00020181,"INCLINATION":87.9089,"RA_OF_ASC_NODE":34.4515,"ARG_OF_PERICENTER":90.4218,"MEAN_ANOMALY":269.7144,"EPHEMERIS_TYPE":0,"CLASSIFICATION_TYPE":"U","NORAD_CAT_ID":50473,"ELEMENT_SET_NO":999,"REV_AT_EPOCH":19916,"BSTAR":0.00011581343,"MEAN_MOTION_DOT":5.8e-7,"MEAN_MOTION_DDOT":0},{"OBJECT_NAME":"ONEWEB-0394","OBJECT_ID":"2021-132F","EPOCH":"2026-01-23T16:55:00.652224","MEAN_MOTION":13.18685733,"ECCENTRICITY":0.00019836,"INCLINATION":87.9199,"RA_OF_ASC_NODE":4.123,"ARG_OF_PERICENTER":82.1722,"MEAN_ANOMALY":277.9636,"EPHEMERIS_TYPE":0,"CLASSIFICATION_TYPE":"U","NORAD_CAT_ID":50474,"ELEMENT_SET_NO":999,"REV_AT_EPOCH":20255,"BSTAR":8.9352434e-5,"MEAN_MOTION_DOT":4.8e-7,"MEAN_MOTION_DDOT":0},{"OBJECT_NAME":"ONEWEB-0395","OBJECT_ID":"2021-132G","EPOCH":"2026-01-24T02:50:58.409376","MEAN_MOTION":13.11420218,"ECCENTRICITY":0.00019563,"INCLINATION":87.8817,"RA_OF_ASC_NODE":49.7493,"ARG_OF_PERICENTER":100.0226,"MEAN_ANOMALY":260.1123,"EPHEMERIS_TYPE":0,"CLASSIFICATION_TYPE":"U","NORAD_CAT_ID":50475,"ELEMENT_SET_NO":999,"REV_AT_EPOCH":19683,"BSTAR":0.00066778608,"MEAN_MOTION_DOT":2.49e-6,"MEAN_MOTION_DDOT":0}]
